TEVEL2-7                
1 63238U 25052AE  26068.66113295  .00019244  00000+0  69668-3 0  9998
2 63238  97.4054 324.3041 0008105 124.6830 235.5175 15.28414096 54803
STARLINK-36443          
1 67431U 26005AD  26068.52545754  .00029859  00000+0  10627-2 0  9993
2 67431  42.9998 238.7026 0002291 266.7980  93.2610 15.28415724  8675
