[{"OBJECT_NAME":"TEVEL2-7","OBJECT_ID":"2025-052AE","EPOCH":"2026-03-09T15:52:01.887744","MEAN_MOTION":15.28414096,"ECCENTRICITY":0.00081048,"INCLINATION":97.4054,"RA_OF_ASC_NODE":324.3041,"ARG_OF_PERICENTER":124.683,"MEAN_ANOMALY":235.5175,"EPHEMERIS_TYPE":0,"CLASSIFICATION_TYPE":"U","NORAD_CAT_ID":63238,"ELEMENT_SET_NO":999,"REV_AT_EPOCH":5480,"BSTAR":0.00069668191,"MEAN_MOTION_DOT":0.00019244,"MEAN_MOTION_DDOT":0},{"OBJECT_NAME":"STARLINK-36443","OBJECT_ID":"2026-005AD","EPOCH":"2026-03-09T12:36:39.531456","MEAN_MOTION":15.28415724,"ECCENTRICITY":0.00022913,"INCLINATION":42.9998,"RA_OF_ASC_NODE":238.7026,"ARG_OF_PERICENTER":266.798,"MEAN_ANOMALY":93.261,"EPHEMERIS_TYPE":0,"CLASSIFICATION_TYPE":"U","NORAD_CAT_ID":67431,"ELEMENT_SET_NO":999,"REV_AT_EPOCH":867,"BSTAR":0.001062734,"MEAN_MOTION_DOT":0.00029859,"MEAN_MOTION_DDOT":0}]
